start=new Date('2023-06-11T00:00:00.000Z').valueOf();
sats=[{"RCS_SIZE":"LARGE","OBJECT_NAME":"STARLINK-1636","PERIAPSIS":"546.179","MEAN_MOTION":"15.06390214","MEAN_MOTION_DDOT":"0.0000000000000","BSTAR":"0.00002279200000","CLASSIFICATION_TYPE":"U","INCLINATION":"53.0523","TLE_LINE2":"2 46153  53.0523 118.9978 0001537  91.6310 268.4855 15.06390214155176","EPOCH":"2023-06-10T17:55:45.391296","OBJECT_ID":"2020-057AN","COUNTRY_CODE":"US","MEAN_MOTION_DOT":"0.00000058","APOAPSIS":"548.308","ELEMENT_SET_NO":"999","SEMIMAJOR_AXIS":"6925.379","TLE_LINE1":"1 46153U 20057AN  23161.74705314  .00000058  00000-0  22792-4 0  9996","RA_OF_ASC_NODE":"118.9978","FILE":"3929969","SITE":"AFETR","MEAN_ELEMENT_THEORY":"SGP4","LAUNCH_DATE":"2020-08-18","OBJECT_TYPE":"PAYLOAD","PERIOD":"95.593","ECCENTRICITY":"0.00015370","MEAN_ANOMALY":"268.4855","ARG_OF_PERICENTER":"91.6310","EPHEMERIS_TYPE":"0","DECAY_DATE":null,"CENTER_NAME":"EARTH","GP_ID":"233651237","TIME_SYSTEM":"UTC","REV_AT_EPOCH":"15517","NORAD_CAT_ID":"46153","REF_FRAME":"TEME"},{"REF_FRAME":"TEME","NORAD_CAT_ID":"46154","REV_AT_EPOCH":"15506","TIME_SYSTEM":"UTC","DECAY_DATE":null,"CENTER_NAME":"EARTH","GP_ID":"233650983","EPHEMERIS_TYPE":"0","MEAN_ANOMALY":"267.5626","ARG_OF_PERICENTER":"92.5493","ECCENTRICITY":"0.00011410","PERIOD":"95.593","SITE":"AFETR","FILE":"3929969","OBJECT_TYPE":"PAYLOAD","MEAN_ELEMENT_THEORY":"SGP4","LAUNCH_DATE":"2020-08-18","RA_OF_ASC_NODE":"128.3625","TLE_LINE1":"1 46154U 20057AP  23161.88988021  .00000154  00000-0  29209-4 0  9997","ELEMENT_SET_NO":"999","SEMIMAJOR_AXIS":"6925.380","COUNTRY_CODE":"US","MEAN_MOTION_DOT":"0.00000154","APOAPSIS":"548.035","OBJECT_ID":"2020-057AP","CLASSIFICATION_TYPE":"U","EPOCH":"2023-06-10T21:21:25.650144","TLE_LINE2":"2 46154  53.0540 128.3625 0001141  92.5493 267.5626 15.06389728155065","INCLINATION":"53.0540","MEAN_MOTION_DDOT":"0.0000000000000","BSTAR":"0.00002920900000","RCS_SIZE":"LARGE","PERIAPSIS":"546.455","MEAN_MOTION":"15.06389728","OBJECT_NAME":"STARLINK-1642"},{"OBJECT_ID":"2020-057AQ","EPOCH":"2023-06-10T20:21:43.663392","TLE_LINE2":"2 46155  53.0540  98.5508 0001436  76.8996 283.2153 15.06388082156719","INCLINATION":"53.0540","CLASSIFICATION_TYPE":"U","BSTAR":"0.00002208500000","MEAN_MOTION_DDOT":"0.0000000000000","PERIAPSIS":"546.256","MEAN_MOTION":"15.06388082","OBJECT_NAME":"STARLINK-1667","RCS_SIZE":"LARGE","RA_OF_ASC_NODE":"98.5508","TLE_LINE1":"1 46155U 20057AQ  23161.84842203  .00000047  00000-0  22085-4 0  9991","SEMIMAJOR_AXIS":"6925.385","ELEMENT_SET_NO":"999","APOAPSIS":"548.245","MEAN_MOTION_DOT":"0.00000047","COUNTRY_CODE":"US","EPHEMERIS_TYPE":"0","ARG_OF_PERICENTER":"76.8996","MEAN_ANOMALY":"283.2153","ECCENTRICITY":"0.00014360","PERIOD":"95.593","OBJECT_TYPE":"PAYLOAD","MEAN_ELEMENT_THEORY":"SGP4","LAUNCH_DATE":"2020-08-18","SITE":"AFETR","FILE":"3929969","REF_FRAME":"TEME","NORAD_CAT_ID":"46155","REV_AT_EPOCH":"15671","TIME_SYSTEM":"UTC","GP_ID":"233650236","CENTER_NAME":"EARTH","DECAY_DATE":null},{"REF_FRAME":"TEME","NORAD_CAT_ID":"46156","REV_AT_EPOCH":"15645","TIME_SYSTEM":"UTC","DECAY_DATE":null,"GP_ID":"233650486","CENTER_NAME":"EARTH","EPHEMERIS_TYPE":"0","MEAN_ANOMALY":"284.3093","ARG_OF_PERICENTER":"75.7991","ECCENTRICITY":"0.00008540","PERIOD":"95.593","SITE":"AFETR","FILE":"3929969","OBJECT_TYPE":"PAYLOAD","LAUNCH_DATE":"2020-08-18","MEAN_ELEMENT_THEORY":"SGP4","RA_OF_ASC_NODE":"118.2891","TLE_LINE1":"1 46156U 20057AR  23161.90555756  .00000707  00000-0  66379-4 0  9990","ELEMENT_SET_NO":"999","SEMIMAJOR_AXIS":"6925.404","COUNTRY_CODE":"US","MEAN_MOTION_DOT":"0.00000707","APOAPSIS":"547.861","OBJECT_ID":"2020-057AR","CLASSIFICATION_TYPE":"U","EPOCH":"2023-06-10T21:44:00.173184","TLE_LINE2":"2 46156  53.0548 118.2891 0000854  75.7991 284.3093 15.06381792156456","INCLINATION":"53.0548","MEAN_MOTION_DDOT":"0.0000000000000","BSTAR":"0.00006637900000","RCS_SIZE":"LARGE","MEAN_MOTION":"15.06381792","PERIAPSIS":"546.678","OBJECT_NAME":"STARLINK-1545"},{"EPHEMERIS_TYPE":"0","MEAN_ANOMALY":"272.6641","ARG_OF_PERICENTER":"87.4519","PERIOD":"95.593","ECCENTRICITY":"0.00014930","FILE":"3929930","SITE":"AFETR","LAUNCH_DATE":"2020-08-18","MEAN_ELEMENT_THEORY":"SGP4","OBJECT_TYPE":"PAYLOAD","NORAD_CAT_ID":"46157","REF_FRAME":"TEME","TIME_SYSTEM":"UTC","REV_AT_EPOCH":"15609","DECAY_DATE":null,"GP_ID":"233630557","CENTER_NAME":"EARTH","OBJECT_ID":"2020-057AS","CLASSIFICATION_TYPE":"U","INCLINATION":"53.0530","TLE_LINE2":"2 46157  53.0530  99.8353 0001493  87.4519 272.6641 15.06393074156096","EPOCH":"2023-06-10T13:27:43.059456","MEAN_MOTION_DDOT":"0.0000000000000","BSTAR":"0.00015423000000","RCS_SIZE":"LARGE","OBJECT_NAME":"STARLINK-1587","MEAN_MOTION":"15.06393074","PERIAPSIS":"546.201","TLE_LINE1":"1 46157U 20057AS  23161.56091504  .00002016  00000-0  15423-3 0  9997","RA_OF_ASC_NODE":"99.8353","ELEMENT_SET_NO":"999","SEMIMAJOR_AXIS":"6925.370","MEAN_MOTION_DOT":"0.00002016","COUNTRY_CODE":"US","APOAPSIS":"548.269"},{"TLE_LINE1":"1 46158U 20057AT  23161.82261490 -.00001150  00000-0 -58354-4 0  9991","RA_OF_ASC_NODE":"98.6627","APOAPSIS":"548.058","MEAN_MOTION_DOT":"-0.00001150","COUNTRY_CODE":"US","SEMIMAJOR_AXIS":"6925.380","ELEMENT_SET_NO":"999","INCLINATION":"53.0526","TLE_LINE2":"2 46158  53.0526  98.6627 0001173  89.1845 270.9278 15.06389620156739","EPOCH":"2023-06-10T19:44:33.927360","CLASSIFICATION_TYPE":"U","OBJECT_ID":"2020-057AT","OBJECT_NAME":"STARLINK-1589","PERIAPSIS":"546.433","MEAN_MOTION":"15.06389620","RCS_SIZE":"LARGE","BSTAR":"-0.00005835400000","MEAN_MOTION_DDOT":"0.0000000000000","NORAD_CAT_ID":"46158","REF_FRAME":"TEME","CENTER_NAME":"EARTH","GP_ID":"233651483","DECAY_DATE":null,"TIME_SYSTEM":"UTC","REV_AT_EPOCH":"15673","ARG_OF_PERICENTER":"89.1845","MEAN_ANOMALY":"270.9278","EPHEMERIS_TYPE":"0","LAUNCH_DATE":"2020-08-18","MEAN_ELEMENT_THEORY":"SGP4","OBJECT_TYPE":"PAYLOAD","FILE":"3929969","SITE":"AFETR","PERIOD":"95.593","ECCENTRICITY":"0.00011730"},{"NORAD_CAT_ID":"46159","REF_FRAME":"TEME","DECAY_DATE":null,"GP_ID":"233649737","CENTER_NAME":"EARTH","TIME_SYSTEM":"UTC","REV_AT_EPOCH":"15618","MEAN_ANOMALY":"259.8073","ARG_OF_PERICENTER":"100.3042","EPHEMERIS_TYPE":"0","FILE":"3929969","SITE":"AFETR","LAUNCH_DATE":"2020-08-18","MEAN_ELEMENT_THEORY":"SGP4","OBJECT_TYPE":"PAYLOAD","PERIOD":"95.593","ECCENTRICITY":"0.00011200","TLE_LINE1":"1 46159U 20057AU  23161.92950785  .00000183  00000-0  31146-4 0  9998","RA_OF_ASC_NODE":"138.1840","MEAN_MOTION_DOT":"0.00000183","COUNTRY_CODE":"US","APOAPSIS":"548.016","ELEMENT_SET_NO":"999","SEMIMAJOR_AXIS":"6925.375","CLASSIFICATION_TYPE":"U","TLE_LINE2":"2 46159  53.0540 138.1840 0001120 100.3042 259.8073 15.06391233156181","INCLINATION":"53.0540","EPOCH":"2023-06-10T22:18:29.478240","OBJECT_ID":"2020-057AU","RCS_SIZE":"LARGE","OBJECT_NAME":"STARLINK-1595","MEAN_MOTION":"15.06391233","PERIAPSIS":"546.465","MEAN_MOTION_DDOT":"0.0000000000000","BSTAR":"0.00003114600000"},{"NORAD_CAT_ID":"46160","REF_FRAME":"TEME","GP_ID":"233649987","CENTER_NAME":"EARTH","DECAY_DATE":null,"TIME_SYSTEM":"UTC","REV_AT_EPOCH":"15645","ARG_OF_PERICENTER":"94.5803","MEAN_ANOMALY":"265.5398","EPHEMERIS_TYPE":"0","LAUNCH_DATE":"2020-08-18","MEAN_ELEMENT_THEORY":"SGP4","OBJECT_TYPE":"PAYLOAD","FILE":"3929969","SITE":"AFETR","PERIOD":"95.593","ECCENTRICITY":"0.00018570","TLE_LINE1":"1 46160U 20057AV  23161.92029039  .00000806  00000-0  73048-4 0  9998","RA_OF_ASC_NODE":"118.2224","APOAPSIS":"548.533","COUNTRY_CODE":"US","MEAN_MOTION_DOT":"0.00000806","SEMIMAJOR_AXIS":"6925.382","ELEMENT_SET_NO":"999","INCLINATION":"53.0530","TLE_LINE2":"2 46160  53.0530 118.2224 0001857  94.5803 265.5398 15.06389024156452","EPOCH":"2023-06-10T22:05:13.089696","CLASSIFICATION_TYPE":"U","OBJECT_ID":"2020-057AV","OBJECT_NAME":"STARLINK-1598","PERIAPSIS":"545.961","MEAN_MOTION":"15.06389024","RCS_SIZE":"LARGE","BSTAR":"0.00007304800000","MEAN_MOTION_DDOT":"0.0000000000000"},{"NORAD_CAT_ID":"46161","REF_FRAME":"TEME","CENTER_NAME":"EARTH","GP_ID":"233651238","DECAY_DATE":null,"TIME_SYSTEM":"UTC","REV_AT_EPOCH":"15645","ARG_OF_PERICENTER":"98.2833","MEAN_ANOMALY":"261.8357","EPHEMERIS_TYPE":"0","LAUNCH_DATE":"2020-08-18","MEAN_ELEMENT_THEORY":"SGP4","OBJECT_TYPE":"PAYLOAD","FILE":"3929969","SITE":"AFETR","PERIOD":"95.592","ECCENTRICITY":"0.00017710","TLE_LINE1":"1 46161U 20057AW  23161.89817659 -.00001859  00000-0 -10589-3 0  9999","RA_OF_ASC_NODE":"118.3239","APOAPSIS":"548.422","MEAN_MOTION_DOT":"-0.00001859","COUNTRY_CODE":"US","SEMIMAJOR_AXIS":"6925.331","ELEMENT_SET_NO":"999","TLE_LINE2":"2 46161  53.0535 118.3239 0001771  98.2833 261.8357 15.06405737156458","INCLINATION":"53.0535","EPOCH":"2023-06-10T21:33:22.457376","CLASSIFICATION_TYPE":"U","OBJECT_ID":"2020-057AW","OBJECT_NAME":"STARLINK-1600","MEAN_MOTION":"15.06405737","PERIAPSIS":"545.969","RCS_SIZE":"LARGE","BSTAR":"-0.00010589000000","MEAN_MOTION_DDOT":"0.0000000000000"},{"OBJECT_NAME":"STARLINK-1603","PERIAPSIS":"546.360","MEAN_MOTION":"15.06387313","RCS_SIZE":"LARGE","BSTAR":"0.00011839000000","MEAN_MOTION_DDOT":"0.0000000000000","INCLINATION":"53.0541","TLE_LINE2":"2 46162  53.0541 118.3082 0001289 100.5967 259.5167 15.06387313156464","EPOCH":"2023-06-10T21:38:40.430976","CLASSIFICATION_TYPE":"U","OBJECT_ID":"2020-057AX","APOAPSIS":"548.145","MEAN_MOTION_DOT":"0.00001482","COUNTRY_CODE":"US","SEMIMAJOR_AXIS":"6925.387","ELEMENT_SET_NO":"999","TLE_LINE1":"1 46162U 20057AX  23161.90185684  .00001482  00000-0  11839-3 0  9997","RA_OF_ASC_NODE":"118.3082","LAUNCH_DATE":"2020-08-18","MEAN_ELEMENT_THEORY":"SGP4","OBJECT_TYPE":"PAYLOAD","FILE":"3929969","SITE":"AFETR","PERIOD":"95.593","ECCENTRICITY":"0.00012890","ARG_OF_PERICENTER":"100.5967","MEAN_ANOMALY":"259.5167","EPHEMERIS_TYPE":"0","GP_ID":"233650984","CENTER_NAME":"EARTH","DECAY_DATE":null,"TIME_SYSTEM":"UTC","REV_AT_EPOCH":"15646","NORAD_CAT_ID":"46162","REF_FRAME":"TEME"}];
